{
    "week": 296,
    "satellites": [
        {
            "Name": "BEIDOU-3 M24 (C46)",
            "Line1": "1 44542U 19061A   24344.03101313  .00000090  00000+0  00000+0 0  9992",
            "Line2": "2 44542  54.4240 201.4553 0009095  16.3547 343.7572  1.86229242 35453",
            "SatelliteNumber": "44542",
            "Classification": "U",
            "LaunchYear": "19",
            "LaunchNumber": "061",
            "PieceOfLaunch": "A",
            "EpochYear": "24",
            "EpochDay": 344.03101313,
            "FirstDerivativeMeanMotion": 9e-07,
            "SecondDerivativeMeanMotion": "00000+0",
            "BSTAR": "00000+0",
            "SetNumber": "999",
            "Inclination": 54.424,
            "RAAN": 201.4553,
            "Eccentricity": 0.0009095,
            "ArgumentOfPerigee": 16.3547,
            "MeanAnomaly": 343.7572,
            "MeanMotion": 1.86229242,
            "RevolutionNumber": "3545"
        },
        {
            "Name": "BEIDOU-3 M23 (C45)",
            "Line1": "1 44543U 19061B   24344.37826622  .00000093  00000+0  00000+0 0  9990",
            "Line2": "2 44543  54.4224 201.4123 0005701  14.7017 130.8340  1.86229323 35462",
            "SatelliteNumber": "44543",
            "Classification": "U",
            "LaunchYear": "19",
            "LaunchNumber": "061",
            "PieceOfLaunch": "B",
            "EpochYear": "24",
            "EpochDay": 344.37826622,
            "FirstDerivativeMeanMotion": 9.3e-07,
            "SecondDerivativeMeanMotion": "00000+0",
            "BSTAR": "00000+0",
            "SetNumber": "999",
            "Inclination": 54.4224,
            "RAAN": 201.4123,
            "Eccentricity": 0.0005701,
            "ArgumentOfPerigee": 14.7017,
            "MeanAnomaly": 130.834,
            "MeanMotion": 1.86229323,
            "RevolutionNumber": "3546"
        },
        {
            "Name": "BEIDOU-3 IGSO-3 (C40)",
            "Line1": "1 44709U 19073A   24344.25777152 -.00000208  00000+0  00000+0 0  9996",
            "Line2": "2 44709  55.7548 286.8678 0039923 190.1262 169.7672  1.00248741 18893",
            "SatelliteNumber": "44709",
            "Classification": "U",
            "LaunchYear": "19",
            "LaunchNumber": "073",
            "PieceOfLaunch": "A",
            "EpochYear": "24",
            "EpochDay": 344.25777152,
            "FirstDerivativeMeanMotion": -2.08e-06,
            "SecondDerivativeMeanMotion": "00000+0",
            "BSTAR": "00000+0",
            "SetNumber": "999",
            "Inclination": 55.7548,
            "RAAN": 286.8678,
            "Eccentricity": 0.0039923,
            "ArgumentOfPerigee": 190.1262,
            "MeanAnomaly": 169.7672,
            "MeanMotion": 1.00248741,
            "RevolutionNumber": "1889"
        },
        {
            "Name": "BEIDOU-3 M22 (C44)",
            "Line1": "1 44793U 19078A   24344.41211102 -.00000062  00000+0  00000+0 0  9998",
            "Line2": "2 44793  54.4271 319.2680 0005762  11.8040 348.2097  1.86231842 34325",
            "SatelliteNumber": "44793",
            "Classification": "U",
            "LaunchYear": "19",
            "LaunchNumber": "078",
            "PieceOfLaunch": "A",
            "EpochYear": "24",
            "EpochDay": 344.41211102,
            "FirstDerivativeMeanMotion": -6.2e-07,
            "SecondDerivativeMeanMotion": "00000+0",
            "BSTAR": "00000+0",
            "SetNumber": "999",
            "Inclination": 54.4271,
            "RAAN": 319.268,
            "Eccentricity": 0.0005762,
            "ArgumentOfPerigee": 11.804,
            "MeanAnomaly": 348.2097,
            "MeanMotion": 1.86231842,
            "RevolutionNumber": "3432"
        },
        {
            "Name": "BEIDOU-3 M21 (C43)",
            "Line1": "1 44794U 19078B   24342.93059869 -.00000052  00000+0  00000+0 0  9993",
            "Line2": "2 44794  54.4018 319.2918 0003916 356.7423   3.2576  1.86232373 34290",
            "SatelliteNumber": "44794",
            "Classification": "U",
            "LaunchYear": "19",
            "LaunchNumber": "078",
            "PieceOfLaunch": "B",
            "EpochYear": "24",
            "EpochDay": 342.93059869,
            "FirstDerivativeMeanMotion": -5.2e-07,
            "SecondDerivativeMeanMotion": "00000+0",
            "BSTAR": "00000+0",
            "SetNumber": "999",
            "Inclination": 54.4018,
            "RAAN": 319.2918,
            "Eccentricity": 0.0003916,
            "ArgumentOfPerigee": 356.7423,
            "MeanAnomaly": 3.2576,
            "MeanMotion": 1.86232373,
            "RevolutionNumber": "3429"
        },
        {
            "Name": "BEIDOU-3 M19 (C41)",
            "Line1": "1 44864U 19090A   24344.24951073 -.00000021  00000+0  00000+0 0  9995",
            "Line2": "2 44864  56.0725  81.2100 0017351 278.8990  77.3625  1.86231210 33892",
            "SatelliteNumber": "44864",
            "Classification": "U",
            "LaunchYear": "19",
            "LaunchNumber": "090",
            "PieceOfLaunch": "A",
            "EpochYear": "24",
            "EpochDay": 344.24951073,
            "FirstDerivativeMeanMotion": -2.1e-07,
            "SecondDerivativeMeanMotion": "00000+0",
            "BSTAR": "00000+0",
            "SetNumber": "999",
            "Inclination": 56.0725,
            "RAAN": 81.21,
            "Eccentricity": 0.0017351,
            "ArgumentOfPerigee": 278.899,
            "MeanAnomaly": 77.3625,
            "MeanMotion": 1.8623121,
            "RevolutionNumber": "3389"
        },
        {
            "Name": "BEIDOU-3 M20 (C42)",
            "Line1": "1 44865U 19090B   24343.67018081 -.00000015  00000+0  00000+0 0  9998",
            "Line2": "2 44865  56.0736  81.2630 0014615 291.7084 125.8352  1.86231206 33870",
            "SatelliteNumber": "44865",
            "Classification": "U",
            "LaunchYear": "19",
            "LaunchNumber": "090",
            "PieceOfLaunch": "B",
            "EpochYear": "24",
            "EpochDay": 343.67018081,
            "FirstDerivativeMeanMotion": -1.5e-07,
            "SecondDerivativeMeanMotion": "00000+0",
            "BSTAR": "00000+0",
            "SetNumber": "999",
            "Inclination": 56.0736,
            "RAAN": 81.263,
            "Eccentricity": 0.0014615,
            "ArgumentOfPerigee": 291.7084,
            "MeanAnomaly": 125.8352,
            "MeanMotion": 1.86231206,
            "RevolutionNumber": "3387"
        },
        {
            "Name": "BEIDOU-3 G2 (C60)",
            "Line1": "1 45344U 20017A   24345.10865829 -.00000126  00000+0  00000+0 0  9995",
            "Line2": "2 45344   2.5608  35.6599 0004477 223.2345 299.5995  1.00271060 17714",
            "SatelliteNumber": "45344",
            "Classification": "U",
            "LaunchYear": "20",
            "LaunchNumber": "017",
            "PieceOfLaunch": "A",
            "EpochYear": "24",
            "EpochDay": 345.10865829,
            "FirstDerivativeMeanMotion": -1.26e-06,
            "SecondDerivativeMeanMotion": "00000+0",
            "BSTAR": "00000+0",
            "SetNumber": "999",
            "Inclination": 2.5608,
            "RAAN": 35.6599,
            "Eccentricity": 0.0004477,
            "ArgumentOfPerigee": 223.2345,
            "MeanAnomaly": 299.5995,
            "MeanMotion": 1.0027106,
            "RevolutionNumber": "1771"
        },
        {
            "Name": "BEIDOU-3 G3 (C61)",
            "Line1": "1 45807U 20040A   24344.90042260 -.00000338  00000+0  00000+0 0  9993",
            "Line2": "2 45807   1.1259  57.2881 0003793 296.4390 160.0416  1.00265332 16513",
            "SatelliteNumber": "45807",
            "Classification": "U",
            "LaunchYear": "20",
            "LaunchNumber": "040",
            "PieceOfLaunch": "A",
            "EpochYear": "24",
            "EpochDay": 344.9004226,
            "FirstDerivativeMeanMotion": -3.38e-06,
            "SecondDerivativeMeanMotion": "00000+0",
            "BSTAR": "00000+0",
            "SetNumber": "999",
            "Inclination": 1.1259,
            "RAAN": 57.2881,
            "Eccentricity": 0.0003793,
            "ArgumentOfPerigee": 296.439,
            "MeanAnomaly": 160.0416,
            "MeanMotion": 1.00265332,
            "RevolutionNumber": "1651"
        },
        {
            "Name": "BEIDOU-3 G4 (C62)",
            "Line1": "1 56564U 23066A   24344.83873741 -.00000096  00000+0  00000+0 0  9995",
            "Line2": "2 56564   1.6876 289.1436 0004120 262.4883 349.4167  1.00270179  5836",
            "SatelliteNumber": "56564",
            "Classification": "U",
            "LaunchYear": "23",
            "LaunchNumber": "066",
            "PieceOfLaunch": "A",
            "EpochYear": "24",
            "EpochDay": 344.83873741,
            "FirstDerivativeMeanMotion": -9.6e-07,
            "SecondDerivativeMeanMotion": "00000+0",
            "BSTAR": "00000+0",
            "SetNumber": "999",
            "Inclination": 1.6876,
            "RAAN": 289.1436,
            "Eccentricity": 0.000412,
            "ArgumentOfPerigee": 262.4883,
            "MeanAnomaly": 349.4167,
            "MeanMotion": 1.00270179,
            "RevolutionNumber": "583"
        }
    ]
}